     3.04           N: GNSS NAV DATA    M: MIXED            RINEX VERSION / TYPE
ssrcrin-15.6.1x                         20250101 143000 UTC PGM / RUN BY / DATE 
    18                                                      LEAP SECONDS        
                                                            END OF HEADER       
S21 2025 01 01 14 41 36 0.000000000000E+00 0.000000000000E+00 3.121070000000E+05
     4.200468400000E+04 0.000000000000E+00 0.000000000000E+00 6.300000000000E+01
    -3.674932960000E+03 0.000000000000E+00 0.000000000000E+00 3.276700000000E+04
     0.000000000000E+00 0.000000000000E+00 0.000000000000E+00 1.710000000000E+02
E18 2025 01 01 14 30 00 9.497113060206E-04 4.283151611162E-11 0.000000000000E+00
     1.100000000000E+01 2.396875000000E+01 6.739923602014E-09-6.846131799269E-01
     5.345791578293E-07 1.621152258012E-01 6.498768925667E-06 5.289320772171E+03
     3.114000000000E+05 1.145526766777E-06-2.841517325996E+00-2.177432179451E-06
     8.635073446384E-01 2.001562500000E+02 2.772857905050E+00-1.023185476925E-08
     2.692969315838E-10 2.580000000000E+02 2.347000000000E+03
     3.120000000000E+00 1.600000000000E+01-3.259629011154E-09 0.000000000000E+00
     3.121400000000E+05
E27 2025 01 01 14 30 00-5.449332529679E-04-9.919176591211E-12 0.000000000000E+00
     1.100000000000E+01-1.625000000000E+01 3.529789887060E-09 5.849288784642E-01
    -6.575137376785E-07 3.207186236978E-04 6.390735507011E-06 5.440602457047E+03
     3.114000000000E+05 5.587935447693E-08 2.413552664168E+00 5.215406417847E-08
     9.642056121768E-01 2.037500000000E+02 5.531696467190E-01-5.547016769799E-09
    -6.053823594624E-10 2.580000000000E+02 2.347000000000E+03
     3.120000000000E+00 0.000000000000E+00-4.656612873077E-10 0.000000000000E+00
     3.121400000000E+05
E15 2025 01 01 14 30 00-1.484808162786E-04-2.287947609148E-12 0.000000000000E+00
     1.100000000000E+01 1.776875000000E+02 2.559749480983E-09 1.022169820447E+00
     8.305534720421E-06 4.395669093356E-04 3.855675458908E-07 5.440607786179E+03
     3.114000000000E+05 1.136213541031E-07-1.775979840369E+00 1.303851604462E-08
     9.996381551473E-01 3.508750000000E+02-1.181591218657E+00-5.652735459121E-09
     3.460858444360E-10 2.580000000000E+02 2.347000000000E+03
     3.120000000000E+00 0.000000000000E+00 2.561137080193E-09 0.000000000000E+00
     3.121400000000E+05
E19 2025 01 01 14 30 00 1.170711184386E-03 5.606182185147E-11 0.000000000000E+00
     1.100000000000E+01-1.844375000000E+02 2.581536102769E-09-2.419988005688E+00
    -8.493661880493E-06 1.476304605603E-04 1.179240643978E-05 5.440636899948E+03
     3.114000000000E+05 1.117587089539E-08 3.191121167120E-01 1.676380634308E-08
     9.691166910744E-01 8.887500000000E+01-2.126296820409E+00-5.182001565451E-09
     3.357282701443E-10 2.580000000000E+02 2.347000000000E+03
     3.120000000000E+00 0.000000000000E+00-6.752088665962E-09 0.000000000000E+00
     3.121400000000E+05
E36 2025 01 01 14 30 00-3.330334438942E-04-5.258016244625E-12 0.000000000000E+00
     1.100000000000E+01 1.594375000000E+02 2.501532770309E-09 2.411444365149E+00
     7.504597306252E-06 3.675116458908E-04 1.195818185806E-06 5.440613142014E+03
     3.114000000000E+05-1.303851604462E-08-1.775907563438E+00-2.421438694000E-08
     9.996861710445E-01 3.354062500000E+02-1.004781644914E+00-5.599161798992E-09
     2.525105180766E-10 2.580000000000E+02 2.347000000000E+03
     3.120000000000E+00 0.000000000000E+00 2.095475792885E-09 0.000000000000E+00
     3.121400000000E+05
E07 2025 01 01 14 30 00-1.612919731997E-04-2.088995643135E-12 0.000000000000E+00
     1.100000000000E+01-1.761875000000E+02 2.780472960717E-09-2.738002306249E+00
    -8.154660463333E-06 1.255837269127E-04 1.295842230320E-05 5.440620634079E+03
     3.114000000000E+05-3.539025783539E-08 3.132496831695E-01 5.587935447693E-09
     9.636299407464E-01 6.512500000000E+01-2.987666859288E-01-5.244504168935E-09
     3.475144753728E-10 2.580000000000E+02 2.347000000000E+03
     3.120000000000E+00 0.000000000000E+00 3.026798367500E-09 0.000000000000E+00
     3.121400000000E+05
S36 2025 01 01 14 42 08 0.000000000000E+00 0.000000000000E+00 3.121410000000E+05
     4.200368800000E+04 0.000000000000E+00 0.000000000000E+00 6.300000000000E+01
     3.674846960000E+03 0.000000000000E+00 0.000000000000E+00 3.276700000000E+04
     0.000000000000E+00 0.000000000000E+00 0.000000000000E+00 2.430000000000E+02
E07 2025 01 01 14 30 00-1.612904015929E-04-2.088995643135E-12 0.000000000000E+00
     1.100000000000E+01-1.761875000000E+02 2.780472960717E-09-2.738002306249E+00
    -8.154660463333E-06 1.255837269127E-04 1.295842230320E-05 5.440620634079E+03
     3.114000000000E+05-3.539025783539E-08 3.132496831695E-01 5.587935447693E-09
     9.636299407464E-01 6.512500000000E+01-2.987666859288E-01-5.244504168935E-09
     3.475144753728E-10 5.170000000000E+02 2.347000000000E+03
     3.120000000000E+00 0.000000000000E+00 3.026798367500E-09 4.190951585770E-09
     3.122040000000E+05
S23 2025 01 01 14 43 28 0.000000000000E+00 0.000000000000E+00 3.122230000000E+05
     3.866796400000E+04 0.000000000000E+00 0.000000000000E+00 6.300000000000E+01
     1.681330800000E+04 0.000000000000E+00 0.000000000000E+00 3.276700000000E+04
     0.000000000000E+00 0.000000000000E+00 0.000000000000E+00 1.520000000000E+02
S21 2025 01 01 14 44 16 0.000000000000E+00 0.000000000000E+00 3.122690000000E+05
     4.200468400000E+04 0.000000000000E+00 0.000000000000E+00 6.300000000000E+01
    -3.674932960000E+03 0.000000000000E+00 0.000000000000E+00 3.276700000000E+04
     0.000000000000E+00 0.000000000000E+00 0.000000000000E+00 1.720000000000E+02
S36 2025 01 01 14 44 32 0.000000000000E+00 0.000000000000E+00 3.122850000000E+05
     4.200368800000E+04 0.000000000000E+00 0.000000000000E+00 6.300000000000E+01
     3.674846960000E+03 0.000000000000E+00 0.000000000000E+00 3.276700000000E+04
     0.000000000000E+00 0.000000000000E+00 0.000000000000E+00 2.440000000000E+02
